{
  "norad_id": 52692,
  "name": "STARLINK-3993",
  "history": [
    {
      "epoch": "2026-03-28T15:22:15.464064Z",
      "apogee_km": 540.6847706731241,
      "perigee_km": 538.7754393521409,
      "latitude_deg": -2.498270584330233e-06,
      "longitude_deg": 2.1538657292303602,
      "height_km": 540.5739140733798,
      "semi_major_axis_km": 6917.867105012632,
      "eccentricity": 0.000138,
      "inclination_deg": 53.2181,
      "raan_deg": 58.7763,
      "arg_perigee_deg": 86.8806,
      "mean_anomaly_deg": 273.2344,
      "mean_motion_rev_day": 15.08844346
    },
    {
      "epoch": "2026-03-29T04:05:20.673024Z",
      "apogee_km": 540.8504713986777,
      "perigee_km": 538.6201493658109,
      "latitude_deg": -3.2101586880225695e-06,
      "longitude_deg": 168.48174678055682,
      "height_km": 540.5265267959818,
      "semi_major_axis_km": 6917.872310382244,
      "eccentricity": 0.0001612,
      "inclination_deg": 53.2192,
      "raan_deg": 56.3982,
      "arg_perigee_deg": 84.6312,
      "mean_anomaly_deg": 275.4864,
      "mean_motion_rev_day": 15.08842643
    },
    {
      "epoch": "2026-03-30T03:56:07.361376Z",
      "apogee_km": 540.7233979829007,
      "perigee_km": 538.7642541329606,
      "latitude_deg": -3.193154628804042e-05,
      "longitude_deg": 165.34715839980169,
      "height_km": 540.6335720407227,
      "semi_major_axis_km": 6917.88082605793,
      "eccentricity": 0.0001416,
      "inclination_deg": 53.218,
      "raan_deg": 51.9375,
      "arg_perigee_deg": 89.6519,
      "mean_anomaly_deg": 270.4635,
      "mean_motion_rev_day": 15.08839857
    },
    {
      "epoch": "2026-03-31T06:57:40.783104Z",
      "apogee_km": 540.680831719792,
      "perigee_km": 538.8019359507416,
      "latitude_deg": -3.2522896055021264e-05,
      "longitude_deg": 113.79238578710407,
      "height_km": 540.7026137751072,
      "semi_major_axis_km": 6917.8783838352665,
      "eccentricity": 0.0001358,
      "inclination_deg": 53.2187,
      "raan_deg": 46.8819,
      "arg_perigee_deg": 93.9903,
      "mean_anomaly_deg": 266.1244,
      "mean_motion_rev_day": 15.08840656
    },
    {
      "epoch": "2026-04-01T06:48:28.351872Z",
      "apogee_km": 540.6388689327196,
      "perigee_km": 538.8803396159128,
      "latitude_deg": 2.0127561402536105e-05,
      "longitude_deg": 110.65338019777933,
      "height_km": 540.6762442399669,
      "semi_major_axis_km": 6917.896604274316,
      "eccentricity": 0.0001271,
      "inclination_deg": 53.2182,
      "raan_deg": 42.4204,
      "arg_perigee_deg": 91.351,
      "mean_anomaly_deg": 268.7628,
      "mean_motion_rev_day": 15.08834695
    },
    {
      "epoch": "2026-04-02T13:00:47.590272Z",
      "apogee_km": 540.6198033499895,
      "perigee_km": 538.8636306588905,
      "latitude_deg": -4.127078154241479e-05,
      "longitude_deg": 10.68248641165472,
      "height_km": 540.6079473056094,
      "semi_major_axis_km": 6917.87871700444,
      "eccentricity": 0.00012693,
      "inclination_deg": 53.219,
      "raan_deg": 36.7702,
      "arg_perigee_deg": 88.0565,
      "mean_anomaly_deg": 272.0572,
      "mean_motion_rev_day": 15.08840547
    },
    {
      "epoch": "2026-04-03T12:51:34.150752Z",
      "apogee_km": 540.667519584139,
      "perigee_km": 538.7663549650979,
      "latitude_deg": -8.571063767561504e-06,
      "longitude_deg": 7.549977624113527,
      "height_km": 540.482912214968,
      "semi_major_axis_km": 6917.853937274618,
      "eccentricity": 0.00013741,
      "inclination_deg": 53.2191,
      "raan_deg": 32.311,
      "arg_perigee_deg": 82.1447,
      "mean_anomaly_deg": 277.9701,
      "mean_motion_rev_day": 15.08848654
    },
    {
      "epoch": "2026-04-04T12:42:22.771008Z",
      "apogee_km": 540.764750336737,
      "perigee_km": 538.7447259492001,
      "latitude_deg": 7.365054732775647e-06,
      "longitude_deg": 4.40824965775497,
      "height_km": 540.5697716245548,
      "semi_major_axis_km": 6917.891738142968,
      "eccentricity": 0.000146,
      "inclination_deg": 53.2199,
      "raan_deg": 27.8512,
      "arg_perigee_deg": 85.4112,
      "mean_anomaly_deg": 274.7047,
      "mean_motion_rev_day": 15.08836287
    }
  ]
}